NORAD_CAT_ID,OBJECT_NAME,OBJECT_TYPE,EPOCH,MEAN_MOTION,ECCENTRICITY,INCLINATION,RA_OF_ASC_NODE,ARG_OF_PERICENTER,MEAN_ANOMALY,BSTAR,MEAN_MOTION_DOT,MEAN_MOTION_DDOT,TLE_LINE0,TLE_LINE1,TLE_LINE2,SEMIMAJOR_AXIS,PERIOD,APOGEE,PERIGEE,DECAYED
55923.0,STARLINK-5854,PAYLOAD,2023-09-16 12:49:33,14.98325238,0.0003101,70.0002,66.6775,269.1635,90.9168,6.2722e-05,6.55e-06,0.0,0 STARLINK-5854,1 55923U 23037K   23259.53441488  .00000655  00000-0  62722-4 0  9996,2 55923  70.0002  66.6775 0003101 269.1635  90.9168 14.98325238 27905,6950.208,96.107,574.228,569.917,0.0
55923.0,STARLINK-5854,PAYLOAD,2023-09-16 17:37:57,14.98325746,0.0003192,70.0004,66.173,269.7904,90.2889,4.8457e-05,4.85e-06,0.0,0 STARLINK-5854,1 55923U 23037K   23259.73469544  .00000485  00000-0  48457-4 0  9991,2 55923  70.0004  66.1730 0003192 269.7904  90.2889 14.98325746 28276,6950.206,96.107,574.29,569.853,0.0
55923.0,STARLINK-5854,PAYLOAD,2023-09-17 12:51:34,14.98329355,0.0003141,70.0007,64.1534,270.2147,89.8652,-1.4051e-05,-2.61e-06,0.0,0 STARLINK-5854,1 55923U 23037K   23260.53581527 -.00000261  00000-0 -14051-4 0  9994,2 55923  70.0007  64.1534 0003141 270.2147  89.8652 14.98329355 28057,6950.195,96.107,574.243,569.877,0.0
55923.0,STARLINK-5854,PAYLOAD,2023-09-17 17:39:58,14.98331463,0.0003154,70.0007,63.6487,270.8021,89.2776,-4.1431e-06,-1.42e-06,0.0,0 STARLINK-5854,1 55923U 23037K   23260.73609366 -.00000142  00000-0 -41431-5 0  9999,2 55923  70.0007  63.6487 0003154 270.8021  89.2776 14.98331463 28424,6950.188,96.107,574.245,569.861,0.0
55923.0,STARLINK-5854,PAYLOAD,2023-09-18 12:53:35,14.9832979,0.0003101,70.0009,61.6282,271.4351,88.6453,-3.8024e-06,-1.38e-06,0.0,0 STARLINK-5854,1 55923U 23037K   23261.53721433 -.00000138  00000-0 -38024-5 0  9997,2 55923  70.0009  61.6282 0003101 271.4351  88.6453 14.98329790 28203,6950.194,96.107,574.214,569.903,0.0
55923.0,STARLINK-5854,PAYLOAD,2023-09-18 17:41:59,14.983315,0.0003124,70.0009,61.1233,271.8427,88.2375,1.3698e-05,7e-07,0.0,0 STARLINK-5854,1 55923U 23037K   23261.73749272  .00000070  00000-0  13698-4 0  9992,2 55923  70.0009  61.1233 0003124 271.8427  88.2375 14.98331500 28578,6950.188,96.107,574.224,569.882,0.0
55923.0,STARLINK-5854,PAYLOAD,2023-09-18 20:54:15,14.98332448,0.0003084,70.0009,60.7865,271.9453,88.1353,2.6973e-05,2.29e-06,0.0,0 STARLINK-5854,1 55923U 23037K   23261.87101158  .00000229  00000-0  26973-4 0  9998,2 55923  70.0009  60.7865 0003084 271.9453  88.1353 14.98332448 28251,6950.185,96.107,574.194,569.907,0.0
55923.0,STARLINK-5854,PAYLOAD,2023-09-19 17:43:59,14.98333671,0.000298,70.0009,58.5982,271.8798,88.202,5.9527e-05,6.17e-06,0.0,0 STARLINK-5854,1 55923U 23037K   23262.73888841  .00000617  00000-0  59527-4 0  9997,2 55923  70.0009  58.5982 0002980 271.8798  88.2020 14.98333671 28724,6950.182,96.107,574.118,569.975,0.0
55923.0,STARLINK-5854,PAYLOAD,2023-09-20 09:45:21,14.98328261,0.0002419,70.0031,56.9166,275.414,84.6743,-5.6517e-06,-1.6e-06,0.0,0 STARLINK-5854,1 55923U 23037K   23263.40649459 -.00000160  00000-0 -56517-5 0  9994,2 55923  70.0031  56.9166 0002419 275.4140  84.6743 14.98328261 28825,6950.198,96.107,573.745,570.382,0.0
55923.0,STARLINK-5854,PAYLOAD,2023-09-20 12:57:37,14.9832351,0.0002598,70.0023,56.5798,264.1771,95.9092,-5.7453e-05,-7.78e-06,0.0,0 STARLINK-5854,1 55923U 23037K   23263.54001759 -.00000778  00000-0 -57453-4 0  9998,2 55923  70.0023  56.5798 0002598 264.1771  95.9092 14.98323510 28505,6950.213,96.107,573.884,570.272,0.0
55923.0,STARLINK-5854,PAYLOAD,2023-09-20 19:22:10,14.98319767,0.0002823,70.0021,55.9063,266.584,93.4996,-9.7825e-05,-1.26e-05,0.0,0 STARLINK-5854,1 55923U 23037K   23263.80706272 -.00001260  00000-0 -97825-4 0  9993,2 55923  70.0021  55.9063 0002823 266.5840  93.4996 14.98319767 28544,6950.225,96.108,574.052,570.127,0.0
55923.0,STARLINK-5854,PAYLOAD,2023-09-21 09:47:22,14.98328641,0.0003064,70.0011,54.3899,264.4029,95.6781,-5.1128e-05,-7.03e-06,0.0,0 STARLINK-5854,1 55923U 23037K   23264.40789616 -.00000703  00000-0 -51128-4 0  9990,2 55923  70.0011  54.3899 0003064 264.4029  95.6781 14.98328641 28971,6950.197,96.107,574.192,569.933,0.0
55923.0,STARLINK-5854,PAYLOAD,2023-09-21 12:59:38,14.98332697,0.0003238,70.0005,54.0531,269.1002,90.9786,-2.4473e-05,-3.85e-06,0.0,0 STARLINK-5854,1 55923U 23037K   23264.54141291 -.00000385  00000-0 -24473-4 0  9995,2 55923  70.0005  54.0531 0003238 269.1002  90.9786 14.98332697 28654,6950.185,96.107,574.3,569.799,0.0
55923.0,STARLINK-5854,PAYLOAD,2023-09-21 16:11:53,14.98335572,0.0003131,70.0009,53.7169,267.5493,92.5307,1.8669e-05,1.3e-06,0.0,0 STARLINK-5854,1 55923U 23037K   23264.67492970  .00000130  00000-0  18669-4 0  9998,2 55923  70.0009  53.7169 0003131 267.5493  92.5307 14.98335572 29012,6950.176,96.107,574.217,569.865,0.0
55923.0,STARLINK-5854,PAYLOAD,2023-09-21 19:24:09,14.98336011,0.000315,70.001,53.3804,266.8751,93.2048,4.077e-05,3.94e-06,0.0,0 STARLINK-5854,1 55923U 23037K   23264.80844850  .00000394  00000-0  40770-4 0  9991,2 55923  70.0010  53.3804 0003150 266.8751  93.2048 14.98336011 28698,6950.174,96.107,574.229,569.85,0.0
55923.0,STARLINK-5854,PAYLOAD,2023-09-22 03:24:50,14.98320691,0.0003226,70.0008,52.5386,280.0053,80.0742,0.00026811,3.107e-05,0.0,0 STARLINK-5854,1 55923U 23037K   23265.14225327  .00003107  00000-0  26811-3 0  9995,2 55923  70.0008  52.5386 0003226 280.0053  80.0742 14.98320691 29084,6950.222,96.108,574.329,569.845,0.0
55923.0,STARLINK-5854,PAYLOAD,2023-09-22 13:01:39,14.98325733,0.0003249,70.0009,51.5289,268.4253,91.6534,7.9315e-05,8.53e-06,0.0,0 STARLINK-5854,1 55923U 23037K   23265.54281308  .00000853  00000-0  79315-4 0  9993,2 55923  70.0009  51.5289 0003249 268.4253  91.6534 14.98325733 28801,6950.206,96.107,574.329,569.813,0.0
55923.0,STARLINK-5854,PAYLOAD,2023-09-22 17:50:02,14.98328645,0.0003215,70.0011,51.0247,270.0952,89.9839,0.000129,1.446e-05,0.0,0 STARLINK-5854,1 55923U 23037K   23265.74309020  .00001446  00000-0  12900-3 0  9992,2 55923  70.0011  51.0247 0003215 270.0952  89.9839 14.98328645 29175,6950.197,96.107,574.297,569.828,0.0
55923.0,STARLINK-5854,PAYLOAD,2023-09-22 19:26:10,14.98330026,0.0003157,70.0012,50.8563,268.6419,91.4378,0.00013301,1.494e-05,0.0,0 STARLINK-5854,1 55923U 23037K   23265.80984917  .00001494  00000-0  13301-3 0  9992,2 55923  70.0012  50.8563 0003157 268.6419  91.4378 14.98330026 28845,6950.193,96.107,574.252,569.864,0.0
55923.0,STARLINK-5854,PAYLOAD,2023-09-23 13:03:40,14.98330079,0.0003134,70.0013,49.004,270.309,89.771,-2.5753e-05,-4e-06,0.0,0 STARLINK-5854,1 55923U 23037K   23266.54421297 -.00000400  00000-0 -25753-4 0  9994,2 55923  70.0013  49.0040 0003134 270.3090  89.7710 14.98330079 28956,6950.193,96.107,574.236,569.879,0.0
55923.0,STARLINK-5854,PAYLOAD,2023-09-23 17:52:03,14.98333104,0.0003099,70.0014,48.4989,269.1213,90.9591,-1.0131e-05,-2.14e-06,0.0,0 STARLINK-5854,1 55923U 23037K   23266.74449011 -.00000214  00000-0 -10131-4 0  9997,2 55923  70.0014  48.4989 0003099 269.1213  90.9591 14.98333104 29320,6950.183,96.107,574.202,569.894,0.0
55923.0,STARLINK-5854,PAYLOAD,2023-09-24 09:53:24,14.98327261,0.000307,70.0016,46.8157,271.043,89.0378,-5.1359e-05,-7.06e-06,0.0,0 STARLINK-5854,1 55923U 23037K   23267.41209404 -.00000706  00000-0 -51359-4 0  9995,2 55923  70.0016  46.8157 0003070 271.0430  89.0378 14.98327261 29423,6950.201,96.107,574.2,569.933,0.0
55923.0,STARLINK-5854,PAYLOAD,2023-09-24 13:05:41,14.98327178,0.0003074,70.0015,46.4791,271.0791,89.0016,-5.3974e-05,-7.37e-06,0.0,0 STARLINK-5854,1 55923U 23037K   23267.54561432 -.00000737  00000-0 -53974-4 0  9990,2 55923  70.0015  46.4791 0003074 271.0791  89.0016 14.98327178 29107,6950.202,96.107,574.203,569.93,0.0
55923.0,STARLINK-5854,PAYLOAD,2023-09-24 19:30:13,14.98331862,0.0002908,70.0018,45.808,264.8735,95.2092,-4.5405e-05,-6.35e-06,0.0,0 STARLINK-5854,1 55923U 23037K   23267.81265079 -.00000635  00000-0 -45405-4 0  9995,2 55923  70.0018  45.8080 0002908 264.8735  95.2092 14.98331862 29149,6950.187,96.107,574.073,570.031,0.0
55923.0,STARLINK-5854,PAYLOAD,2023-09-24 22:42:28,14.98334588,0.0002795,70.0017,45.4688,268.5232,91.5607,1.2276e-05,5.4e-07,0.0,0 STARLINK-5854,1 55923U 23037K   23267.94616786  .00000054  00000-0  12276-4 0  9997,2 55923  70.0017  45.4688 0002795 268.5232  91.5607 14.98334588 29504,6950.179,96.107,573.986,570.101,0.0
55923.0,STARLINK-5854,PAYLOAD,2023-09-25 09:55:25,14.98328044,0.0002891,70.0016,44.2913,275.6739,84.409,3.7177e-05,3.51e-06,0.0,0 STARLINK-5854,1 55923U 23037K   23268.41349151  .00000351  00000-0  37177-4 0  9996,2 55923  70.0016  44.2913 0002891 275.6739  84.4090 14.98328044 29573,6950.199,96.107,574.073,570.055,0.0
55923.0,STARLINK-5854,PAYLOAD,2023-09-25 13:07:41,14.98329864,0.0003035,70.0015,43.954,272.9327,87.1485,1.802e-05,1.22e-06,0.0,0 STARLINK-5854,1 55923U 23037K   23268.54701017  .00000122  00000-0  18020-4 0  9995,2 55923  70.0015  43.9540 0003035 272.9327  87.1485 14.98329864 29252,6950.193,96.107,574.168,569.949,0.0
55923.0,STARLINK-5854,PAYLOAD,2023-09-25 19:32:13,14.98336221,0.0003194,70.0022,43.2802,282.1235,77.9566,8.3489e-05,9.03e-06,0.0,0 STARLINK-5854,1 55923U 23037K   23268.81404412  .00000903  00000-0  83489-4 0  9992,2 55923  70.0022  43.2802 0003194 282.1235  77.9566 14.98336221 29635,6950.174,96.107,574.259,569.819,0.0
55923.0,STARLINK-5854,PAYLOAD,2023-09-26 09:57:26,14.98323254,0.0002511,70.004,41.7705,245.3734,114.7164,-1.3246e-05,-2.51e-06,0.0,0 STARLINK-5854,1 55923U 23037K   23269.41489462 -.00000251  00000-0 -13246-4 0  9999,2 55923  70.0040  41.7705 0002511 245.3734 114.7164 14.98323254 29723,6950.214,96.107,573.824,570.334,0.0
55923.0,STARLINK-5854,PAYLOAD,2023-09-26 14:45:51,14.98321885,0.000279,70.0026,41.2646,255.5647,104.5202,-6.0369e-05,-8.13e-06,0.0,0 STARLINK-5854,1 55923U 23037K   23269.61517756 -.00000813  00000-0 -60369-4 0  9991,2 55923  70.0026  41.2646 0002790 255.5647 104.5202 14.98321885 29415,6950.218,96.108,574.022,570.144,0.0
